OBJECT_NAME,OBJECT_ID,EPOCH,MEAN_MOTION,ECCENTRICITY,INCLINATION,RA_OF_ASC_NODE,ARG_OF_PERICENTER,MEAN_ANOMALY,EPHEMERIS_TYPE,CLASSIFICATION_TYPE,NORAD_CAT_ID,ELEMENT_SET_NO,REV_AT_EPOCH,BSTAR,MEAN_MOTION_DOT,MEAN_MOTION_DDOT
ONEWEB-0236,2021-045AG,2026-06-27T05:10:11.279712,13.15549638,.00021628,87.8997,257.2085,99.4142,260.7233,0,U,48797,999,24557,.33881129E-3,.14E-5,0
ONEWEB-0248,2021-045AH,2026-06-27T07:17:57.597504,13.15547896,.00020522,87.9008,257.1753,114.3750,245.7595,0,U,48798,999,24574,-.29363732E-3,-.98E-6,0
ONEWEB-0225,2021-045AJ,2026-06-27T06:00:22.677408,13.15549603,.00017474,87.9002,257.1940,115.8528,244.2783,0,U,48799,999,24574,-.30116794E-3,-.101E-5,0
ONEWEB-0215,2021-045AK,2026-06-27T05:17:01.461984,13.15548294,.00018508,87.9011,257.1830,120.3265,239.8048,0,U,48800,999,24561,.3819278E-3,.157E-5,0
ONEWEB-0216,2021-045AL,2026-06-27T05:30:43.011936,13.15550000,.00019704,87.9008,257.1955,97.9307,262.2047,0,U,48801,999,24562,-.10337959E-4,.9E-7,0
ONEWEB-0239,2021-045AM,2026-06-27T05:37:33.477600,13.15549730,.00020924,87.8998,257.1999,122.7271,237.4062,0,U,48802,999,24566,-.9386882E-4,-.23E-6,0
ONEWEB-0249,2021-060A,2026-06-27T03:51:05.243040,13.16596001,.00021256,87.9088,226.7975,99.5709,260.5663,0,U,48967,999,24092,.15755044E-4,.19E-6,0
ONEWEB-0250,2021-060B,2026-06-27T04:39:05.318784,13.25834309,.00030733,87.9091,224.5147,104.4102,255.7376,0,U,48968,999,24154,.11842578E-3,.65E-6,0
ONEWEB-0252,2021-060D,2026-06-27T04:35:34.152000,13.16593872,.00018348,87.9089,226.7838,93.3387,266.7954,0,U,48970,999,24097,.20832356E-3,.92E-6,0
ONEWEB-0253,2021-060E,2026-06-27T04:19:36.646464,13.16594192,.00021642,87.9087,226.7913,99.0779,261.0596,0,U,48971,999,24090,.11815888E-3,.58E-6,0
ONEWEB-0254,2021-060F,2026-06-27T04:33:16.936704,13.16594892,.00020692,87.9090,226.7871,105.6183,254.5176,0,U,48972,999,24090,.31210907E-3,.132E-5,0
ONEWEB-0255,2021-060G,2026-06-27T03:38:33.785088,13.16595430,.00020207,87.9091,226.8012,101.5491,258.5867,0,U,48973,999,24097,.28465196E-4,.24E-6,0
ONEWEB-0256,2021-060H,2026-06-27T04:16:11.163936,13.16593938,.00020417,87.9084,226.7996,93.0793,267.0571,0,U,48974,999,24094,-.16077723E-3,-.49E-6,0
ONEWEB-0257,2021-060J,2026-06-27T05:02:54.903552,13.16595042,.00019238,87.9088,226.7809,98.4777,261.6572,0,U,48975,999,24090,.30413756E-3,.129E-5,0
ONEWEB-0258,2021-060K,2026-06-27T03:15:45.830304,13.16595259,.00021257,87.9093,226.8077,98.2388,261.8984,0,U,48976,999,24090,.42263653E-3,.174E-5,0
ONEWEB-0259,2021-060L,2026-06-27T04:56:04.752384,13.16595193,.00021397,87.9089,226.7929,101.3323,258.8048,0,U,48977,999,24094,.30594176E-3,.13E-5,0
ONEWEB-0260,2021-060M,2026-06-27T04:43:32.261952,13.16594355,.00018124,87.9083,226.7959,86.9372,273.1966,0,U,48978,999,24092,.21691585E-3,.96E-6,0
ONEWEB-0261,2021-060N,2026-06-27T04:00:12.943008,13.16592793,.00018013,87.9086,226.8020,102.4957,257.6375,0,U,48979,999,24097,-.21038072E-3,-.68E-6,0
ONEWEB-0262,2021-060P,2026-06-27T03:31:43.210560,13.16595729,.00022226,87.9095,226.7921,102.8404,257.2975,0,U,48980,999,24093,.70817339E-4,.4E-6,0
ONEWEB-0263,2021-060Q,2026-06-27T04:17:18.955968,13.16594304,.00018686,87.9090,226.7976,106.2524,253.8812,0,U,48981,999,24090,.40146933E-3,.166E-5,0
ONEWEB-0264,2021-060R,2026-06-27T03:21:27.508608,13.16595817,.00018256,87.9090,226.8082,96.0384,264.0955,0,U,48982,999,24090,.85884604E-4,.46E-6,0
ONEWEB-0266,2021-060T,2026-06-27T03:52:14.852928,13.16594858,.000217,87.9091,226.7946,95.7822,264.3557,0,U,48984,999,24089,.49195552E-4,.32E-6,0
ONEWEB-0267,2021-060U,2026-06-27T04:08:12.091488,13.16595101,.00018857,87.9090,226.7891,99.8589,260.2755,0,U,48985,999,24090,-.36734598E-4,-.1E-7,0
ONEWEB-0268,2021-060V,2026-06-27T03:22:35.271264,13.16593091,.00020063,87.9092,226.8051,92.9370,267.1991,0,U,48986,999,24116,.52459453E-4,.33E-6,0
ONEWEB-0269,2021-060W,2026-06-27T04:44:40.665696,13.16594963,.00020753,87.9079,226.7952,90.8224,269.3145,0,U,48987,999,24094,.3357097E-3,.141E-5,0
ONEWEB-0270,2021-060X,2026-06-27T05:09:45.643104,13.16595123,.00020549,87.9092,226.7920,107.1654,252.9702,0,U,48988,999,24098,.14415781E-3,.68E-6,0
ONEWEB-0271,2021-060Y,2026-06-27T04:51:31.338720,13.16594746,.0001931,87.9088,226.7841,103.0502,257.0844,0,U,48989,999,24098,.46118285E-3,.189E-5,0
ONEWEB-0272,2021-060Z,2026-06-27T05:23:26.991744,13.16592693,.00017904,87.9085,226.7915,92.8092,267.3244,0,U,48990,999,24093,-.1292996E-3,-.37E-6,0
ONEWEB-0273,2021-060AA,2026-06-27T04:05:55.101696,13.16595216,.0002043,87.9091,226.8017,100.5520,259.5841,0,U,48991,999,24090,-.36029468E-4,-.1E-7,0
ONEWEB-0274,2021-060AB,2026-06-27T04:42:23.961024,13.16594113,.00018068,87.9080,226.7981,90.4844,269.6494,0,U,48992,999,24094,.2912919E-3,.124E-5,0
