ONEWEB-0236             
1 48797U 21045AG  26178.21540833  .00000140  00000+0  33881-3 0  9997
2 48797  87.8997 257.2085 0002162  99.4142 260.7233 13.15549638245575
ONEWEB-0248             
1 48798U 21045AH  26178.30413886 -.00000098  00000+0 -29364-3 0  9990
2 48798  87.9008 257.1753 0002052 114.3750 245.7595 13.15547896245748
ONEWEB-0225             
1 48799U 21045AJ  26178.25026247 -.00000101  00000+0 -30117-3 0  9999
2 48799  87.9002 257.1940 0001747 115.8528 244.2783 13.15549603245741
ONEWEB-0215             
1 48800U 21045AK  26178.22015581  .00000157  00000+0  38193-3 0  9999
2 48800  87.9011 257.1830 0001850 120.3265 239.8048 13.15548294245611
ONEWEB-0216             
1 48801U 21045AL  26178.22966449  .00000009  00000+0 -10338-4 0  9997
2 48801  87.9008 257.1955 0001970  97.9307 262.2047 13.15550000245623
ONEWEB-0239             
1 48802U 21045AM  26178.23441525 -.00000023  00000+0 -93869-4 0  9999
2 48802  87.8998 257.1999 0002092 122.7271 237.4062 13.15549730245665
ONEWEB-0249             
1 48967U 21060A   26178.16047735  .00000019  00000+0  15755-4 0  9996
2 48967  87.9088 226.7975 0002125  99.5709 260.5663 13.16596001240920
ONEWEB-0250             
1 48968U 21060B   26178.19381156  .00000065  00000+0  11843-3 0  9992
2 48968  87.9091 224.5147 0003073 104.4102 255.7376 13.25834309241540
ONEWEB-0252             
1 48970U 21060D   26178.19136750  .00000092  00000+0  20832-3 0  9991
2 48970  87.9089 226.7838 0001834  93.3387 266.7954 13.16593872240972
ONEWEB-0253             
1 48971U 21060E   26178.18028526  .00000058  00000+0  11816-3 0  9996
2 48971  87.9087 226.7913 0002164  99.0779 261.0596 13.16594192240909
ONEWEB-0254             
1 48972U 21060F   26178.18977936  .00000132  00000+0  31211-3 0  9999
2 48972  87.9090 226.7871 0002069 105.6183 254.5176 13.16594892240902
ONEWEB-0255             
1 48973U 21060G   26178.15177992  .00000024  00000+0  28465-4 0  9999
2 48973  87.9091 226.8012 0002020 101.5491 258.5867 13.16595430240973
ONEWEB-0256             
1 48974U 21060H   26178.17790699 -.00000049  00000+0 -16078-3 0  9992
2 48974  87.9084 226.7996 0002041  93.0793 267.0571 13.16593938240944
ONEWEB-0257             
1 48975U 21060J   26178.21035768  .00000129  00000+0  30414-3 0  9994
2 48975  87.9088 226.7809 0001923  98.4777 261.6572 13.16595042240906
ONEWEB-0258             
1 48976U 21060K   26178.13594711  .00000174  00000+0  42264-3 0  9990
2 48976  87.9093 226.8077 0002125  98.2388 261.8984 13.16595259240901
ONEWEB-0259             
1 48977U 21060L   26178.20561056  .00000130  00000+0  30594-3 0  9990
2 48977  87.9089 226.7929 0002139 101.3323 258.8048 13.16595193240940
ONEWEB-0260             
1 48978U 21060M   26178.19690118  .00000096  00000+0  21692-3 0  9991
2 48978  87.9083 226.7959 0001812  86.9372 273.1966 13.16594355240923
ONEWEB-0261             
1 48979U 21060N   26178.16681647 -.00000068  00000+0 -21038-3 0  9991
2 48979  87.9086 226.8020 0001801 102.4957 257.6375 13.16592793240978
ONEWEB-0262             
1 48980U 21060P   26178.14702790  .00000040  00000+0  70817-4 0  9992
2 48980  87.9095 226.7921 0002222 102.8404 257.2975 13.16595729240938
ONEWEB-0263             
1 48981U 21060Q   26178.17869162  .00000166  00000+0  40147-3 0  9994
2 48981  87.9090 226.7976 0001868 106.2524 253.8812 13.16594304240907
ONEWEB-0264             
1 48982U 21060R   26178.13990172  .00000046  00000+0  85885-4 0  9993
2 48982  87.9090 226.8082 0001825  96.0384 264.0955 13.16595817240902
ONEWEB-0266             
1 48984U 21060T   26178.16128302  .00000032  00000+0  49196-4 0  9996
2 48984  87.9091 226.7946 0002170  95.7822 264.3557 13.16594858240893
ONEWEB-0267             
1 48985U 21060U   26178.17236217 -.00000001  00000+0 -36735-4 0  9996
2 48985  87.9090 226.7891 0001885  99.8589 260.2755 13.16595101240908
ONEWEB-0268             
1 48986U 21060V   26178.14068601  .00000033  00000+0  52459-4 0  9998
2 48986  87.9092 226.8051 0002006  92.9370 267.1991 13.16593091241161
ONEWEB-0269             
1 48987U 21060W   26178.19769289  .00000141  00000+0  33571-3 0  9997
2 48987  87.9079 226.7952 0002075  90.8224 269.3145 13.16594963240946
ONEWEB-0270             
1 48988U 21060X   26178.21511161  .00000068  00000+0  14416-3 0  9990
2 48988  87.9092 226.7920 0002054 107.1654 252.9702 13.16595123240983
ONEWEB-0271             
1 48989U 21060Y   26178.20244605  .00000189  00000+0  46118-3 0  9994
2 48989  87.9088 226.7841 0001931 103.0502 257.0844 13.16594746240984
ONEWEB-0272             
1 48990U 21060Z   26178.22461796 -.00000037  00000+0 -12930-3 0  9999
2 48990  87.9085 226.7915 0001790  92.8092 267.3244 13.16592693240939
ONEWEB-0273             
1 48991U 21060AA  26178.17077664 -.00000001  00000+0 -36029-4 0  9998
2 48991  87.9091 226.8017 0002043 100.5520 259.5841 13.16595216240903
ONEWEB-0274             
1 48992U 21060AB  26178.19611066  .00000124  00000+0  29129-3 0  9997
2 48992  87.9080 226.7981 0001806  90.4844 269.6494 13.16594113240948
